ONEWEB-0168             
1 48068U 21025AC  24023.32825466 -.00000209  00000+0 -60761-3 0  9998
2 48068  87.9016 134.5353 0001538 104.2809 255.8491 13.13469073138580
ONEWEB-0173             
1 48069U 21025AD  24023.24415336 -.00000119  00000+0 -36148-3 0  9993
2 48069  87.9015 134.5624 0001700  86.8072 273.3252 13.13470043138814
ONEWEB-0171             
1 48070U 21025AE  24023.28065926  .00000217  00000+0  55891-3 0  9998
2 48070  87.9015 134.5903 0001703  99.8112 260.3209 13.13471471138632
ONEWEB-0172             
1 48071U 21025AF  24023.26002434 -.00000192  00000+0 -56164-3 0  9990
2 48071  87.9014 134.5606 0001747  99.6977 260.4349 13.13470489139520
ONEWEB-0174             
1 48072U 21025AG  24023.24255910 -.00000076  00000+0 -24335-3 0  9994
2 48072  87.9015 134.5783 0001456 109.5145 250.6141 13.13472088138845
ONEWEB-0175             
1 48073U 21025AH  24023.34730851 -.00000023  00000+0 -97230-4 0  9995
2 48073  87.9007 134.5549 0002079 103.6505 256.4856 13.13471932138512
ONEWEB-0177             
1 48074U 21025AJ  24023.28382325  .00000283  00000+0  73999-3 0  9999
2 48074  87.9009 134.5734 0001381  89.0550 271.0738 13.13471969138694
ONEWEB-0178             
1 48075U 21025AK  24023.30143287  .00000335  00000+0  88201-3 0  9995
2 48075  87.9019 134.5774 0001486  96.0327 264.0972 13.13470249138744
